[{"OBJECT_NAME":"JY1SAT (JO-97)","OBJECT_ID":"2018-099AX","EPOCH":"2026-03-09T16:28:19.890048","MEAN_MOTION":15.30302629,"ECCENTRICITY":0.00047232,"INCLINATION":97.4249,"RA_OF_ASC_NODE":131.3625,"ARG_OF_PERICENTER":256.6795,"MEAN_ANOMALY":103.3919,"EPHEMERIS_TYPE":0,"CLASSIFICATION_TYPE":"U","NORAD_CAT_ID":43803,"ELEMENT_SET_NO":999,"REV_AT_EPOCH":39839,"BSTAR":0.00060804308,"MEAN_MOTION_DOT":0.00017774,"MEAN_MOTION_DDOT":0},{"OBJECT_NAME":"STARLINK-31345","OBJECT_ID":"2024-027L","EPOCH":"2026-03-09T23:13:52.767840","MEAN_MOTION":15.30186465,"ECCENTRICITY":0.00010508,"INCLINATION":53.161,"RA_OF_ASC_NODE":308.1399,"ARG_OF_PERICENTER":101.158,"MEAN_ANOMALY":258.9539,"EPHEMERIS_TYPE":0,"CLASSIFICATION_TYPE":"U","NORAD_CAT_ID":58941,"ELEMENT_SET_NO":999,"REV_AT_EPOCH":11737,"BSTAR":1.9177052e-5,"MEAN_MOTION_DOT":2.09e-6,"MEAN_MOTION_DDOT":0}]
